{
    "links": {
        "self": "http://www.neowsapp.com/rest/v1/neo/3550130?api_key=iIulBulltgU6a56xZRHN4H3l9WmuAYTsLGpBGhQ2"
    },
    "id": "3550130",
    "neo_reference_id": "3550130",
    "name": "(2010 VF)",
    "designation": "2010 VF",
    "nasa_jpl_url": "http://ssd.jpl.nasa.gov/sbdb.cgi?sstr=3550130",
    "absolute_magnitude_h": 25.6,
    "estimated_diameter": {
        "kilometers": {
            "estimated_diameter_min": 0.0201629919,
            "estimated_diameter_max": 0.0450858206
        },
        "meters": {
            "estimated_diameter_min": 20.1629919443,
            "estimated_diameter_max": 45.0858206172
        },
        "miles": {
            "estimated_diameter_min": 0.0125286985,
            "estimated_diameter_max": 0.0280150214
        },
        "feet": {
            "estimated_diameter_min": 66.1515504905,
            "estimated_diameter_max": 147.9193637137
        }
    },
    "is_potentially_hazardous_asteroid": false,
    "close_approach_data": [
        {
            "close_approach_date": "2010-10-06",
            "close_approach_date_full": "2010-Oct-06 16:36",
            "epoch_date_close_approach": 1286382960000,
            "relative_velocity": {
                "kilometers_per_second": "20.3901523573",
                "kilometers_per_hour": "73404.5484864542",
                "miles_per_hour": "45610.7318081526"
            },
            "miss_distance": {
                "astronomical": "0.1089900327",
                "lunar": "42.3971227203",
                "kilometers": "16304676.743150349",
                "miles": "10131256.3355948562"
            },
            "orbiting_body": "Venus"
        },
        {
            "close_approach_date": "2010-10-27",
            "close_approach_date_full": "2010-Oct-27 05:23",
            "epoch_date_close_approach": 1288156980000,
            "relative_velocity": {
                "kilometers_per_second": "24.9180436271",
                "kilometers_per_hour": "89704.957057493",
                "miles_per_hour": "55739.1717894184"
            },
            "miss_distance": {
                "astronomical": "0.0181902099",
                "lunar": "7.0759916511",
                "kilometers": "2721216.655892913",
                "miles": "1690885.6225636794"
            },
            "orbiting_body": "Earth"
        }
    ],
    "orbital_data": {
        "orbit_id": "6",
        "orbit_determination_date": "2017-04-06 08:56:00",
        "first_observation_date": "2010-11-01",
        "last_observation_date": "2010-11-02",
        "data_arc_in_days": 1,
        "observations_used": 21,
        "orbit_uncertainty": "9",
        "minimum_orbit_intersection": ".0161361",
        "jupiter_tisserand_invariant": "3.587",
        "epoch_osculation": "2455502.5",
        "eccentricity": ".7549714899208378",
        "semi_major_axis": "1.854871312356035",
        "inclination": "3.711467806135349",
        "ascending_node_longitude": "17.77140301400053",
        "orbital_period": "922.7182353582755",
        "perihelion_distance": ".4544963540551795",
        "perihelion_argument": "270.909557119419",
        "aphelion_distance": "3.255246270656891",
        "perihelion_time": "2455450.787954742843",
        "mean_anomaly": "20.17553742757465",
        "mean_motion": ".3901516044713457",
        "equinox": "J2000",
        "orbit_class": {
            "orbit_class_type": "APO",
            "orbit_class_description": "Near-Earth asteroid orbits which cross the Earth’s orbit similar to that of 1862 Apollo",
            "orbit_class_range": "a (semi-major axis) > 1.0 AU; q (perihelion) < 1.017 AU"
        }
    },
    "is_sentry_object": false
}